COMMENT,ORIGINATOR,NORAD_CAT_ID,OBJECT_NAME,OBJECT_TYPE,CLASSIFICATION_TYPE,INTLDES,EPOCH,EPOCH_MICROSECONDS,MEAN_MOTION,ECCENTRICITY,INCLINATION,RA_OF_ASC_NODE,ARG_OF_PERICENTER,MEAN_ANOMALY,EPHEMERIS_TYPE,ELEMENT_SET_NO,REV_AT_EPOCH,BSTAR,MEAN_MOTION_DOT,MEAN_MOTION_DDOT,FILE,TLE_LINE0,TLE_LINE1,TLE_LINE2,OBJECT_ID,OBJECT_NUMBER,SEMIMAJOR_AXIS,PERIOD,APOGEE,PERIGEE,DECAYED
"GENERATED VIA SPACETRACK.ORG API","18 SPCS","48883","SPACEBEE-100","PAYLOAD","U","21059E","2022-05-03 19:55:35","100768","15.14848893","0.0007819","97.5489","253.6807","253.529","106.5083","0","999","4717","0.00051977","0.00009609","0","3427438","0 SPACEBEE-100","1 48883U 21059E   22123.83026737  .00009609  00000-0  51977-3 0  9990","2 48883  97.5489 253.6807 0007819 253.5290 106.5083 15.14848893 47170","2021-059E","48883","6899.574","95.059","526.834","516.045","0"
"GENERATED VIA SPACETRACK.ORG API","18 SPCS","48883","SPACEBEE-100","PAYLOAD","U","21059E","2022-05-03 19:55:35","100768","15.14848893","0.0007819","97.5489","253.6807","253.529","106.5083","0","999","4717","0.00051977","0.00009609","0","3427573","0 SPACEBEE-100","1 48883U 21059E   22123.83026737  .00009609  00000-0  51977-3 0  9990","2 48883  97.5489 253.6807 0007819 253.5290 106.5083 15.14848893 47170","2021-059E","48883","6899.574","95.059","526.834","516.045","0"
"GENERATED VIA SPACETRACK.ORG API","18 SPCS","48883","SPACEBEE-100","PAYLOAD","U","21059E","2022-05-04 14:57:00","622368","15.14864991","0.0007785","97.5491","254.4675","250.4405","109.5987","0","999","4729","0.00052925","0.0000979","0","3428698","0 SPACEBEE-100","1 48883U 21059E   22124.62292387  .00009790  00000-0  52925-3 0  9999","2 48883  97.5491 254.4675 0007785 250.4405 109.5987 15.14864991 47297","2021-059E","48883","6899.525","95.058","526.762","516.019","0"
"GENERATED VIA SPACETRACK.ORG API","18 SPCS","48883","SPACEBEE-100","PAYLOAD","U","21059E","2022-05-05 08:23:18","293856","15.1489287","0.0007794","97.5491","255.1888","247.6178","112.4228","0","999","4740","0.00095415","0.00017737","0","3430134","0 SPACEBEE-100","1 48883U 21059E   22125.34951729  .00017737  00000-0  95415-3 0  9992","2 48883  97.5491 255.1888 0007794 247.6178 112.4228 15.14892870 47407","2021-059E","48883","6899.441","95.056","526.683","515.928","0"
"GENERATED VIA SPACETRACK.ORG API","18 SPCS","48883","SPACEBEE-100","PAYLOAD","U","21059E","2022-05-05 08:23:18","293856","15.1489287","0.0007794","97.5491","255.1888","247.6178","112.4228","0","999","4740","0.00095415","0.00017737","0","3430353","0 SPACEBEE-100","1 48883U 21059E   22125.34951729  .00017737  00000-0  95415-3 0  9992","2 48883  97.5491 255.1888 0007794 247.6178 112.4228 15.14892870 47407","2021-059E","48883","6899.441","95.056","526.683","515.928","0"
"GENERATED VIA SPACETRACK.ORG API","18 SPCS","48883","SPACEBEE-100","PAYLOAD","U","21059E","2022-05-05 19:29:07","539648","15.14896631","0.0007815","97.5491","255.6479","245.7091","114.3325","0","999","4747","0.00079406","0.00014745","0","3430591","0 SPACEBEE-100","1 48883U 21059E   22125.81189282  .00014745  00000-0  79406-3 0  9999","2 48883  97.5491 255.6479 0007815 245.7091 114.3325 15.14896631 47470","2021-059E","48883","6899.429","95.056","526.686","515.902","0"
"GENERATED VIA SPACETRACK.ORG API","18 SPCS","48883","SPACEBEE-100","PAYLOAD","U","21059E","2022-05-05 21:04:14","534400","15.14898566","0.0007821","97.5491","255.7135","245.4344","114.6073","0","999","4748","0.00081255","0.00015092","0","3430750","0 SPACEBEE-100","1 48883U 21059E   22125.87794600  .00015092  00000-0  81255-3 0  9992","2 48883  97.5491 255.7135 0007821 245.4344 114.6073 15.14898566 47488","2021-059E","48883","6899.424","95.056","526.685","515.892","0"
"GENERATED VIA SPACETRACK.ORG API","18 SPCS","48883","SPACEBEE-100","PAYLOAD","U","21059E","2022-05-06 08:10:03","457056","15.1490767","0.000785","97.5489","256.1724","243.6119","116.4307","0","999","4755","0.00082965","0.00015415","0","3432208","0 SPACEBEE-100","1 48883U 21059E   22126.34031779  .00015415  00000-0  82965-3 0  9994","2 48883  97.5489 256.1724 0007850 243.6119 116.4307 15.14907670 47551","2021-059E","48883","6899.396","95.055","526.677","515.845","0"
"GENERATED VIA SPACETRACK.ORG API","18 SPCS","48883","SPACEBEE-100","PAYLOAD","U","21059E","2022-05-06 19:15:52","181856","15.14915095","0.0007917","97.5489","256.6315","241.8912","118.152","0","999","4762","0.00080291","0.00014919","0","3432538","0 SPACEBEE-100","1 48883U 21059E   22126.80268729  .00014919  00000-0  80291-3 0  9990","2 48883  97.5489 256.6315 0007917 241.8912 118.1520 15.14915095 47621","2021-059E","48883","6899.373","95.055","526.701","515.776","0"
"GENERATED VIA SPACETRACK.ORG API","18 SPCS","48883","SPACEBEE-100","PAYLOAD","U","21059E","2022-05-07 07:56:47","568768","15.14920771","0.0007984","97.5487","257.156","239.9268","120.1173","0","999","4770","0.00066463","0.00012336","0","3433715","0 SPACEBEE-100","1 48883U 21059E   22127.33110612  .00012336  00000-0  66463-3 0  9992","2 48883  97.5487 257.1560 0007984 239.9268 120.1173 15.14920771 47706","2021-059E","48883","6899.356","95.054","526.730","515.713","0"
"GENERATED VIA SPACETRACK.ORG API","18 SPCS","48883","SPACEBEE-100","PAYLOAD","U","21059E","2022-05-07 07:56:47","568768","15.14920771","0.0007984","97.5487","257.156","239.9268","120.1173","0","999","4770","0.00066463","0.00012336","0","3433971","0 SPACEBEE-100","1 48883U 21059E   22127.33110612  .00012336  00000-0  66463-3 0  9992","2 48883  97.5487 257.1560 0007984 239.9268 120.1173 15.14920771 47706","2021-059E","48883","6899.356","95.054","526.730","515.713","0"
"GENERATED VIA SPACETRACK.ORG API","18 SPCS","48883","SPACEBEE-100","PAYLOAD","U","21059E","2022-05-07 20:37:42","782016","15.14924734","0.0008018","97.5486","257.6807","237.8568","122.1887","0","999","4778","0.00050604","0.00009374","0","3434697","0 SPACEBEE-100","1 48883U 21059E   22127.85952294  .00009374  00000-0  50604-3 0  9997","2 48883  97.5486 257.6807 0008018 237.8568 122.1887 15.14924734 47788","2021-059E","48883","6899.344","95.054","526.741","515.677","0"
"GENERATED VIA SPACETRACK.ORG API","18 SPCS","48883","SPACEBEE-100","PAYLOAD","U","21059E","2022-05-08 02:58:10","338528","15.14930015","0.0008039","97.5486","257.943","236.8924","123.1537","0","999","4782","0.00058335","0.0001082","0","3434926","0 SPACEBEE-100","1 48883U 21059E   22128.12373077  .00010820  00000-0  58335-3 0  9991","2 48883  97.5486 257.9430 0008039 236.8924 123.1537 15.14930015 47828","2021-059E","48883","6899.328","95.054","526.739","515.647","0"
"GENERATED VIA SPACETRACK.ORG API","18 SPCS","48883","SPACEBEE-100","PAYLOAD","U","21059E","2022-05-08 07:43:30","885600","15.14934762","0.0008064","97.5485","258.1398","236.2148","123.8316","0","999","4785","0.00061407","0.00011395","0","3435746","0 SPACEBEE-100","1 48883U 21059E   22128.32188525  .00011395  00000-0  61407-3 0  9997","2 48883  97.5485 258.1398 0008064 236.2148 123.8316 15.14934762 47851","2021-059E","48883","6899.314","95.054","526.742","515.615","0"
"GENERATED VIA SPACETRACK.ORG API","18 SPCS","48883","SPACEBEE-100","PAYLOAD","U","21059E","2022-05-08 20:24:25","570944","15.14941943","0.0008115","97.5486","258.6644","234.271","125.7767","0","999","4793","0.00054807","0.00010164","0","3436768","0 SPACEBEE-100","1 48883U 21059E   22128.85029596  .00010164  00000-0  54807-3 0  9996","2 48883  97.5486 258.6644 0008115 234.2710 125.7767 15.14941943 47930","2021-059E","48883","6899.292","95.053","526.756","515.558","0"
"GENERATED VIA SPACETRACK.ORG API","18 SPCS","48883","SPACEBEE-100","PAYLOAD","U","21059E","2022-05-09 07:30:13","237344","15.1494779","0.000816","97.5485","259.1235","232.6076","127.4414","0","999","4800","0.00049445","0.00009163","0","3437176","0 SPACEBEE-100","1 48883U 21059E   22129.31265321  .00009163  00000-0  49445-3 0  9995","2 48883  97.5485 259.1235 0008160 232.6076 127.4414 15.14947790 48001","2021-059E","48883","6899.274","95.053","526.769","515.509","0"
"GENERATED VIA SPACETRACK.ORG API","18 SPCS","48883","SPACEBEE-100","PAYLOAD","U","21059E","2022-05-09 13:50:40","329888","15.14953408","0.0008155","97.5486","259.3858","231.5469","128.5032","0","999","4804","0.00051606","0.00009569","0","3437431","0 SPACEBEE-100","1 48883U 21059E   22129.57685567  .00009569  00000-0  51606-3 0  9993","2 48883  97.5486 259.3858 0008155 231.5469 128.5032 15.14953408 48048","2021-059E","48883","6899.257","95.052","526.748","515.496","0"
"GENERATED VIA SPACETRACK.ORG API","18 SPCS","48883","SPACEBEE-100","PAYLOAD","U","21059E","2022-05-09 21:46:14","102688","15.14959403","0.0008182","97.5486","259.7138","230.3801","129.6709","0","999","4809","0.00050053","0.0000928","0","3438010","0 SPACEBEE-100","1 48883U 21059E   22129.90710767  .00009280  00000-0  50053-3 0  9996","2 48883  97.5486 259.7138 0008182 230.3801 129.6709 15.14959403 48099","2021-059E","48883","6899.239","95.052","526.749","515.459","0"
"GENERATED VIA SPACETRACK.ORG API","18 SPCS","48883","SPACEBEE-100","PAYLOAD","U","21059E","2022-05-10 07:16:54","496128","15.14965035","0.0008184","97.5487","260.1073","228.8458","131.2069","0","999","4815","0.00043791","0.00008111","0","3439131","0 SPACEBEE-100","1 48883U 21059E   22130.30340852  .00008111  00000-0  43791-3 0  9999","2 48883  97.5487 260.1073 0008184 228.8458 131.2069 15.14965035 48159","2021-059E","48883","6899.222","95.052","526.733","515.440","0"
"GENERATED VIA SPACETRACK.ORG API","18 SPCS","48883","SPACEBEE-100","PAYLOAD","U","21059E","2022-05-10 15:12:28","37376","15.14971074","0.0008196","97.5489","260.4352","227.4852","132.5689","0","999","4820","0.00044161","0.00008181","0","3439477","0 SPACEBEE-100","1 48883U 21059E   22130.63365784  .00008181  00000-0  44161-3 0  9995","2 48883  97.5489 260.4352 0008196 227.4852 132.5689 15.14971074 48208","2021-059E","48883","6899.203","95.051","526.723","515.414","0"
